{
  "norad_id": 62046,
  "name": "STARLINK-32598",
  "history": [
    {
      "epoch": "2026-05-06T20:01:29.313120Z",
      "apogee_km": 484.29530185412204,
      "perigee_km": 481.9103348932558,
      "latitude_deg": 5.7575368157801374e-05,
      "longitude_deg": 122.41611053470322,
      "height_km": 483.1358070070051,
      "semi_major_axis_km": 6861.239818373689,
      "eccentricity": 0.0001738,
      "inclination_deg": 43.0031,
      "raan_deg": 287.4775,
      "arg_perigee_deg": 257.6161,
      "mean_anomaly_deg": 102.4497,
      "mean_motion_rev_day": 15.27562059
    },
    {
      "epoch": "2026-05-07T19:33:49.932000Z",
      "apogee_km": 484.1687844245862,
      "perigee_km": 481.82090510730814,
      "latitude_deg": 3.126648963250971e-06,
      "longitude_deg": 122.82372214839388,
      "height_km": 482.84221869457224,
      "semi_major_axis_km": 6861.131844765947,
      "eccentricity": 0.0001711,
      "inclination_deg": 43.0035,
      "raan_deg": 281.9378,
      "arg_perigee_deg": 266.5793,
      "mean_anomaly_deg": 93.4863,
      "mean_motion_rev_day": 15.27598118
    },
    {
      "epoch": "2026-05-08T11:15:23.581152Z",
      "apogee_km": 483.7965668551233,
      "perigee_km": 482.1553886308466,
      "latitude_deg": 2.9231505531969524e-06,
      "longitude_deg": -116.90766030931812,
      "height_km": 483.49008440068565,
      "semi_major_axis_km": 6861.112977742984,
      "eccentricity": 0.0001196,
      "inclination_deg": 42.999,
      "raan_deg": 278.2411,
      "arg_perigee_deg": 205.8622,
      "mean_anomaly_deg": 154.217,
      "mean_motion_rev_day": 15.27604419
    }
  ]
}